CCSDS_OMM_VERS = 2.0
CREATION_DATE  = 
ORIGINATOR     = 

OBJECT_NAME    = STARLINK-36799
OBJECT_ID      = 2026-037AC
CENTER_NAME    = EARTH
REF_FRAME      = TEME
TIME_SYSTEM    = UTC
MEAN_ELEMENT_THEORY = SGP/SGP4

EPOCH          = 2026-03-05T22:00:01.999584
MEAN_MOTION    = 15.94249789
ECCENTRICITY   = .0001872
INCLINATION    = 42.9997
RA_OF_ASC_NODE = 221.6354
ARG_OF_PERICENTER = 285.7690
MEAN_ANOMALY   = 97.1797

EPHEMERIS_TYPE = 0
CLASSIFICATION_TYPE = U
NORAD_CAT_ID   = 67958
ELEMENT_SET_NO = 999
REV_AT_EPOCH   = 259
BSTAR          = -.37207903E-2
MEAN_MOTION_DOT = -.1437333E-1
MEAN_MOTION_DDOT = .59983802E-3

CCSDS_OMM_VERS = 2.0
CREATION_DATE  = 
ORIGINATOR     = 

OBJECT_NAME    = STARLINK-36834
OBJECT_ID      = 2026-037AD
CENTER_NAME    = EARTH
REF_FRAME      = TEME
TIME_SYSTEM    = UTC
MEAN_ELEMENT_THEORY = SGP/SGP4

EPOCH          = 2026-03-05T22:00:01.999584
MEAN_MOTION    = 15.94510473
ECCENTRICITY   = .00016246
INCLINATION    = 42.9998
RA_OF_ASC_NODE = 221.6199
ARG_OF_PERICENTER = 282.0368
MEAN_ANOMALY   = 106.8132

EPHEMERIS_TYPE = 0
CLASSIFICATION_TYPE = U
NORAD_CAT_ID   = 67959
ELEMENT_SET_NO = 999
REV_AT_EPOCH   = 259
BSTAR          = -.37317252E-2
MEAN_MOTION_DOT = -.1461453E-1
MEAN_MOTION_DDOT = .62004503E-3

CCSDS_OMM_VERS = 2.0
CREATION_DATE  = 
ORIGINATOR     = 

OBJECT_NAME    = STARLINK-36841
OBJECT_ID      = 2026-037AE
CENTER_NAME    = EARTH
REF_FRAME      = TEME
TIME_SYSTEM    = UTC
MEAN_ELEMENT_THEORY = SGP/SGP4

EPOCH          = 2026-03-05T22:00:01.999584
MEAN_MOTION    = 15.94371409
ECCENTRICITY   = .00016264
INCLINATION    = 42.9997
RA_OF_ASC_NODE = 221.6277
ARG_OF_PERICENTER = 286.3273
MEAN_ANOMALY   = 99.4334

EPHEMERIS_TYPE = 0
CLASSIFICATION_TYPE = U
NORAD_CAT_ID   = 67960
ELEMENT_SET_NO = 999
REV_AT_EPOCH   = 259
BSTAR          = -.36874931E-2
MEAN_MOTION_DOT = -.1433746E-1
MEAN_MOTION_DDOT = .59781828E-3

CCSDS_OMM_VERS = 2.0
CREATION_DATE  = 
ORIGINATOR     = 

OBJECT_NAME    = STARLINK-36912
OBJECT_ID      = 2026-038A
CENTER_NAME    = EARTH
REF_FRAME      = TEME
TIME_SYSTEM    = UTC
MEAN_ELEMENT_THEORY = SGP/SGP4

EPOCH          = 2026-03-05T22:00:01.999584
MEAN_MOTION    = 15.99495061
ECCENTRICITY   = .00010875
INCLINATION    = 97.2762
RA_OF_ASC_NODE = 74.9001
ARG_OF_PERICENTER = 71.8501
MEAN_ANOMALY   = 289.5032

EPHEMERIS_TYPE = 0
CLASSIFICATION_TYPE = U
NORAD_CAT_ID   = 67961
ELEMENT_SET_NO = 999
REV_AT_EPOCH   = 259
BSTAR          = -.30983193E-2
MEAN_MOTION_DOT = -.1514854E-1
MEAN_MOTION_DDOT = .70315993E-3

CCSDS_OMM_VERS = 2.0
CREATION_DATE  = 
ORIGINATOR     = 

OBJECT_NAME    = STARLINK-36881
OBJECT_ID      = 2026-038B
CENTER_NAME    = EARTH
REF_FRAME      = TEME
TIME_SYSTEM    = UTC
MEAN_ELEMENT_THEORY = SGP/SGP4

EPOCH          = 2026-03-05T22:00:01.999584
MEAN_MOTION    = 15.99573297
ECCENTRICITY   = .0001054
INCLINATION    = 97.2760
RA_OF_ASC_NODE = 74.9008
ARG_OF_PERICENTER = 71.7747
MEAN_ANOMALY   = 291.4992

EPHEMERIS_TYPE = 0
CLASSIFICATION_TYPE = U
NORAD_CAT_ID   = 67962
ELEMENT_SET_NO = 999
REV_AT_EPOCH   = 259
BSTAR          = -.30800101E-2
MEAN_MOTION_DOT = -.1512553E-1
MEAN_MOTION_DDOT = .70179067E-3

CCSDS_OMM_VERS = 2.0
CREATION_DATE  = 
ORIGINATOR     = 

OBJECT_NAME    = STARLINK-36357
OBJECT_ID      = 2026-038C
CENTER_NAME    = EARTH
REF_FRAME      = TEME
TIME_SYSTEM    = UTC
MEAN_ELEMENT_THEORY = SGP/SGP4

EPOCH          = 2026-03-05T22:00:01.999584
MEAN_MOTION    = 15.99815898
ECCENTRICITY   = .00011491
INCLINATION    = 97.2757
RA_OF_ASC_NODE = 74.9033
ARG_OF_PERICENTER = 70.6254
MEAN_ANOMALY   = 297.7464

EPHEMERIS_TYPE = 0
CLASSIFICATION_TYPE = U
NORAD_CAT_ID   = 67963
ELEMENT_SET_NO = 999
REV_AT_EPOCH   = 259
BSTAR          = -.30420352E-2
MEAN_MOTION_DOT = -.1514432E-1
MEAN_MOTION_DDOT = .70532378E-3

CCSDS_OMM_VERS = 2.0
CREATION_DATE  = 
ORIGINATOR     = 

OBJECT_NAME    = STARLINK-36349
OBJECT_ID      = 2026-038D
CENTER_NAME    = EARTH
REF_FRAME      = TEME
TIME_SYSTEM    = UTC
MEAN_ELEMENT_THEORY = SGP/SGP4

EPOCH          = 2026-03-05T22:00:01.999584
MEAN_MOTION    = 15.99700730
ECCENTRICITY   = .00011844
INCLINATION    = 97.2755
RA_OF_ASC_NODE = 74.9018
ARG_OF_PERICENTER = 72.8734
MEAN_ANOMALY   = 292.9440

EPHEMERIS_TYPE = 0
CLASSIFICATION_TYPE = U
NORAD_CAT_ID   = 67964
ELEMENT_SET_NO = 999
REV_AT_EPOCH   = 259
BSTAR          = -.30754252E-2
MEAN_MOTION_DOT = -.1521086E-1
MEAN_MOTION_DDOT = .71017245E-3

CCSDS_OMM_VERS = 2.0
CREATION_DATE  = 
ORIGINATOR     = 

OBJECT_NAME    = STARLINK-36806
OBJECT_ID      = 2026-038E
CENTER_NAME    = EARTH
REF_FRAME      = TEME
TIME_SYSTEM    = UTC
MEAN_ELEMENT_THEORY = SGP/SGP4

EPOCH          = 2026-03-05T22:00:01.999584
MEAN_MOTION    = 15.99956444
ECCENTRICITY   = .00011076
INCLINATION    = 97.2752
RA_OF_ASC_NODE = 74.9043
ARG_OF_PERICENTER = 67.4952
MEAN_ANOMALY   = 303.8281

EPHEMERIS_TYPE = 0
CLASSIFICATION_TYPE = U
NORAD_CAT_ID   = 67965
ELEMENT_SET_NO = 999
REV_AT_EPOCH   = 259
BSTAR          = -.30209917E-2
MEAN_MOTION_DOT = -.1515899E-1
MEAN_MOTION_DDOT = .70771008E-3

CCSDS_OMM_VERS = 2.0
CREATION_DATE  = 
ORIGINATOR     = 

OBJECT_NAME    = STARLINK-36820
OBJECT_ID      = 2026-038F
CENTER_NAME    = EARTH
REF_FRAME      = TEME
TIME_SYSTEM    = UTC
MEAN_ELEMENT_THEORY = SGP/SGP4

EPOCH          = 2026-03-05T22:00:01.999584
MEAN_MOTION    = 16.00068596
ECCENTRICITY   = .00010981
INCLINATION    = 97.2752
RA_OF_ASC_NODE = 74.9055
ARG_OF_PERICENTER = 75.7037
MEAN_ANOMALY   = 298.0986

EPHEMERIS_TYPE = 0
CLASSIFICATION_TYPE = U
NORAD_CAT_ID   = 67966
ELEMENT_SET_NO = 999
REV_AT_EPOCH   = 259
BSTAR          = -.29793083E-2
MEAN_MOTION_DOT = -.1504614E-1
MEAN_MOTION_DDOT = .69883694E-3

CCSDS_OMM_VERS = 2.0
CREATION_DATE  = 
ORIGINATOR     = 

OBJECT_NAME    = STARLINK-36819
OBJECT_ID      = 2026-038G
CENTER_NAME    = EARTH
REF_FRAME      = TEME
TIME_SYSTEM    = UTC
MEAN_ELEMENT_THEORY = SGP/SGP4

EPOCH          = 2026-03-05T22:00:01.999584
MEAN_MOTION    = 16.00193341
ECCENTRICITY   = .00011502
INCLINATION    = 97.2750
RA_OF_ASC_NODE = 74.9065
ARG_OF_PERICENTER = 68.0456
MEAN_ANOMALY   = 308.4262

EPHEMERIS_TYPE = 0
CLASSIFICATION_TYPE = U
NORAD_CAT_ID   = 67967
ELEMENT_SET_NO = 999
REV_AT_EPOCH   = 259
BSTAR          = -.29660013E-2
MEAN_MOTION_DOT = -.1508468E-1
MEAN_MOTION_DDOT = .7031542E-3

CCSDS_OMM_VERS = 2.0
CREATION_DATE  = 
ORIGINATOR     = 

OBJECT_NAME    = STARLINK-36812
OBJECT_ID      = 2026-038H
CENTER_NAME    = EARTH
REF_FRAME      = TEME
TIME_SYSTEM    = UTC
MEAN_ELEMENT_THEORY = SGP/SGP4

EPOCH          = 2026-03-05T22:00:01.999584
MEAN_MOTION    = 16.00300517
ECCENTRICITY   = .00011127
INCLINATION    = 97.2747
RA_OF_ASC_NODE = 74.9070
ARG_OF_PERICENTER = 70.6449
MEAN_ANOMALY   = 308.1205

EPHEMERIS_TYPE = 0
CLASSIFICATION_TYPE = U
NORAD_CAT_ID   = 67968
ELEMENT_SET_NO = 999
REV_AT_EPOCH   = 259
BSTAR          = -.29515931E-2
MEAN_MOTION_DOT = -.1510255E-1
MEAN_MOTION_DDOT = .70555443E-3

CCSDS_OMM_VERS = 2.0
CREATION_DATE  = 
ORIGINATOR     = 

OBJECT_NAME    = STARLINK-36709
OBJECT_ID      = 2026-038J
CENTER_NAME    = EARTH
REF_FRAME      = TEME
TIME_SYSTEM    = UTC
MEAN_ELEMENT_THEORY = SGP/SGP4

EPOCH          = 2026-03-05T22:00:01.999584
MEAN_MOTION    = 16.00550286
ECCENTRICITY   = .00011481
INCLINATION    = 97.2747
RA_OF_ASC_NODE = 74.9097
ARG_OF_PERICENTER = 67.0299
MEAN_ANOMALY   = 317.1848

EPHEMERIS_TYPE = 0
CLASSIFICATION_TYPE = U
NORAD_CAT_ID   = 67969
ELEMENT_SET_NO = 999
REV_AT_EPOCH   = 259
BSTAR          = -.2870093E-2
MEAN_MOTION_DOT = -.1489777E-1
MEAN_MOTION_DDOT = .68984139E-3

